     2.10           N: GPS NAV DATA                         RINEX VERSION / TYPE
RTKCONV 2.4.2                           20161014 212731 UTC PGM / RUN BY / DATE 
log: C:\Users\macshen\Desktop\hp_1014.ubx                   COMMENT             
format: u-blox                                              COMMENT             
                                                            END OF HEADER       
20 16 10 14 22  0  0.0  .440823379904E-03  .193267624127E-11  .000000000000E+00
     .400000000000E+02 -.830625000000E+02  .519593071708E-08  .895330263059E+00
    -.420026481152E-05  .471763766836E-02  .126622617245E-04  .515360271263E+04
     .511200000000E+06 -.614672899246E-07  .256847512408E+01 -.614672899246E-07
     .926706207342E+00  .119593750000E+03  .146393018012E+01 -.844963767561E-08
    -.441446959466E-09  .100000000000E+01  .191800000000E+04  .000000000000E+00
     .240000000000E+01  .000000000000E+00 -.838190317154E-08  .400000000000E+02
     .506976000000E+06  .400000000000E+01
15 16 10 14 22  0  0.0 -.330865848809E-03 -.136424205266E-11  .000000000000E+00
     .620000000000E+02  .111187500000E+03  .538558147394E-08  .102770230306E+01
     .607781112194E-05  .859323737677E-02  .982172787189E-05  .515369058800E+04
     .511200000000E+06  .707805156708E-07 -.264356272995E+01  .745058059692E-07
     .930458078731E+00  .171562500000E+03  .513938053251E+00 -.868321883378E-08
     .415731602604E-09  .100000000000E+01  .191800000000E+04  .000000000000E+00
     .240000000000E+01  .000000000000E+00 -.107102096081E-07  .620000000000E+02
     .506976000000E+06  .400000000000E+01
21 16 10 14 22  0  0.0 -.532774254680E-03 -.227373675443E-12  .000000000000E+00
     .950000000000E+02 -.292500000000E+02  .543094050619E-08 -.198862602383E+01
    -.120699405670E-05  .233574081212E-01  .153295695782E-05  .515380362129E+04
     .511200000000E+06  .424683094025E-06  .157832925333E+01  .121071934700E-06
     .937117679741E+00  .327312500000E+03 -.175106770307E+01 -.849856828520E-08
     .396445084958E-10  .100000000000E+01  .191800000000E+04  .000000000000E+00
     .240000000000E+01  .000000000000E+00 -.977888703346E-08  .950000000000E+02
     .506976000000E+06  .400000000000E+01
13 16 10 14 22  0  0.0 -.493656843901E-04 -.216004991671E-11  .000000000000E+00
     .740000000000E+02  .105187500000E+03  .462626413104E-08 -.147901061701E-01
     .556185841560E-05  .401331845205E-02  .783987343311E-05  .515368999481E+04
     .511200000000E+06  .372529029846E-07 -.246471036519E+01  .186264514923E-08
     .970900884982E+00  .232437500000E+03  .193359017672E+01 -.833713298934E-08
     .593238996500E-09  .100000000000E+01  .191800000000E+04  .000000000000E+00
     .240000000000E+01  .000000000000E+00 -.111758708954E-07  .740000000000E+02
     .506976000000E+06  .400000000000E+01
18 16 10 14 22  0  0.0  .566998030990E-03  .341060513165E-11  .000000000000E+00
     .290000000000E+02 -.692812500000E+02  .507056835238E-08 -.295192566840E+01
    -.363215804100E-05  .172590909060E-01  .123437494040E-04  .515372919464E+04
     .511200000000E+06  .245869159698E-06  .262007884981E+01 -.117346644402E-06
     .925447672084E+00  .117750000000E+03 -.185682399377E+01 -.802461997192E-08
    -.301083969927E-09  .100000000000E+01  .191800000000E+04  .000000000000E+00
     .240000000000E+01  .000000000000E+00 -.111758708954E-07  .290000000000E+02
     .506976000000E+06  .400000000000E+01
29 16 10 14 22  0  0.0  .647612847388E-03 -.147792889038E-11  .000000000000E+00
     .250000000000E+02  .791875000000E+02  .412517182996E-08 -.248435232841E+01
     .417605042458E-05  .514074810781E-03  .894442200661E-05  .515373154640E+04
     .511200000000E+06 -.130385160446E-07  .618570079710E+00 -.186264514923E-07
     .978916891932E+00  .215500000000E+03  .764817814303E-01 -.794104506212E-08
     .665742016542E-09  .100000000000E+01  .191800000000E+04  .000000000000E+00
     .240000000000E+01  .000000000000E+00 -.102445483208E-07  .250000000000E+02
     .506976000000E+06  .400000000000E+01
 4 16 10 14 22  0  0.0  .790646299720E-05  .306954461848E-11  .000000000000E+00
     .410000000000E+02  .117375000000E+03  .468805241906E-08 -.306770959398E+01
     .612810254097E-05  .839824194554E-02  .756978988647E-05  .515360129738E+04
     .511200000000E+06  .726431608200E-07 -.246614836246E+01  .184401869774E-06
     .966424008948E+00  .232937500000E+03 -.100008677507E+01 -.816855453880E-08
     .615025618286E-09  .100000000000E+01  .191800000000E+04  .000000000000E+00
     .485000000000E+01  .630000000000E+02 -.372529029846E-08  .410000000000E+02
     .506976000000E+06  .400000000000E+01
 5 16 10 14 21 59 44.0 -.845384784043E-04  .250111042988E-11  .000000000000E+00
     .800000000000E+01 -.613125000000E+02  .473162566263E-08  .257490424381E+01
    -.308640301228E-05  .481916416902E-02  .140573829412E-04  .515362352180E+04
     .511184000000E+06 -.577419996262E-07  .264419612081E+01 -.894069671631E-07
     .946772383156E+00  .100406250000E+03  .532494010456E+00 -.802997733793E-08
    -.349300264044E-09  .100000000000E+01  .191800000000E+04  .000000000000E+00
     .240000000000E+01  .000000000000E+00 -.107102096081E-07  .800000000000E+01
     .506976000000E+06  .400000000000E+01
24 16 10 14 22  0  0.0 -.245943665504E-04 -.568434188608E-12  .000000000000E+00
     .480000000000E+02 -.318437500000E+02  .550522931490E-08 -.428341140871E-01
    -.178441405296E-05  .478721898980E-02  .181794166565E-05  .515371573067E+04
     .511200000000E+06  .149011611938E-07 -.155831861720E+01  .838190317154E-07
     .947523373615E+00  .333843750000E+03  .392933106167E+00 -.894430113747E-08
    -.341085636157E-09  .100000000000E+01  .191800000000E+04  .000000000000E+00
     .240000000000E+01  .000000000000E+00  .232830643654E-08  .480000000000E+02
     .506976000000E+06  .400000000000E+01
10 16 10 14 22  0  0.0 -.107699539512E-03 -.318323145621E-11  .000000000000E+00
     .115000000000E+03 -.546875000000E+02  .439339728835E-08 -.244189663905E+01
    -.284612178802E-05  .180553982500E-02  .128764659166E-04  .515368461990E+04
     .511200000000E+06 -.223517417908E-07  .265408588590E+01 -.931322574615E-08
     .959968812703E+00  .134312500000E+03 -.290209597076E+01 -.789461455667E-08
    -.276440086268E-09  .100000000000E+01  .191800000000E+04  .000000000000E+00
     .240000000000E+01  .000000000000E+00  .232830643654E-08  .115000000000E+03
     .506976000000E+06  .400000000000E+01
27 16 10 14 22  0  0.0  .151944346726E-03  .500222085975E-11  .000000000000E+00
     .850000000000E+02  .813125000000E+02  .419838916547E-08  .180103217496E+01
     .419653952122E-05  .385742448270E-02  .913441181183E-05  .515365550423E+04
     .511200000000E+06 -.540167093277E-07  .558007215446E+00  .633299350739E-07
     .972875160224E+00  .208718750000E+03  .335738503988E+00 -.802712007606E-08
     .558951854017E-09  .100000000000E+01  .191800000000E+04  .000000000000E+00
     .240000000000E+01  .000000000000E+00  .186264514923E-08  .850000000000E+02
     .507036000000E+06  .400000000000E+01
